GLOBALSTAR M075         
1 37192U 10054E   25036.78666043 -.00000080  00000+0  13290-3 0  9994
2 37192  51.9921 221.6219 0001045  92.4650 280.4848 12.62272813659255
GLOBALSTAR M073         
1 37193U 10054F   25036.73189961 -.00000086  00000+0  98278-4 0  9995
2 37193  52.0057 135.5087 0000832 104.8657  17.6289 12.62262977661232
GLOBALSTAR M083         
1 37739U 11033A   25036.83480954 -.00000101  00000+0  14333-4 0  9994
2 37739  51.9858  84.1042 0000334 109.6852  62.0596 12.62271482630267
GLOBALSTAR M088         
1 37740U 11033B   25036.85375536 -.00000094  00000+0  56632-4 0  9996
2 37740  51.9763 349.6486 0000374  44.7795 333.2528 12.62273713625816
GLOBALSTAR M091         
1 37741U 11033C   25036.96000675 -.00000074  00000+0  16842-3 0  9994
2 37741  52.0013 312.6483 0000507  40.1629  40.2789 12.62264351626619
GLOBALSTAR M085         
1 37742U 11033D   25036.93209584 -.00000079  00000+0  13780-3 0  9995
2 37742  51.9851 263.8884 0000787  64.4165 309.0237 12.62265160627124
GLOBALSTAR M081         
1 37743U 11033E   25036.87888172 -.00000070  00000+0  18748-3 0  9995
2 37743  51.9944 266.7546 0000972  61.1855 311.4028 12.62260376627265
GLOBALSTAR M089         
1 37744U 11033F   25036.76077000 -.00000081  00000+0  12893-3 0  9991
2 37744  51.9901 221.3660 0001260  91.3243 283.4119 12.62266046628091
